*******************************************************************************
JPL/HORIZONS               1805 Dirikis (1970 GD)          2023-Sep-04 11:14:16
Rec #:    1805 (+COV) Soln.date: 2023-Aug-22_11:12:45   # obs: 4066 (1950-2023)
 
IAU76/J2000 helio. ecliptic osc. elements (au, days, deg., period=Julian yrs):
 
  EPOCH=  2457440.5 ! 2016-Feb-22.00 (TDB)         Residual RMS= .25054
   EC= .1117823380628942   QR= 2.789466080304946   TP= 2456670.0378419049
   OM= 78.93646591035096   W=  86.23693955733471   IN= 2.515752715558631
   A= 3.140520842854469    MA= 136.4435048401663   ADIST= 3.491575605403993
   PER= 5.56558            N= .177093065           ANGMOM= .030293669
   DAN= 3.07869            DDN= 3.1242             L= 165.1697855
   B= 2.5103252            MOID= 1.79858005        TP= 2014-Jan-12.5378419049
 
Asteroid physical parameters (km, seconds, rotational period in hours):
   GM= n.a.                RAD= 14.049             ROTPER= 23.
   H= 11.43                G= .150                 B-V= n.a.
                           ALBEDO= .089            STYP= n.a.

ASTEROID comments: 
1: soln ref.= JPL#54, OCC=0
2: source=ORB
*******************************************************************************


*******************************************************************************
Ephemeris / API_USER Mon Sep  4 11:14:16 2023 Pasadena, USA      / Horizons
*******************************************************************************
Target body name: 1805 Dirikis (1970 GD)          {source: JPL#54}
Center body name: Solar System Barycenter (0)     {source: DE441}
Center-site name: BODY CENTER
*******************************************************************************
Start time      : A.D. 2023-Aug-12 00:00:00.0000 TDB
Stop  time      : A.D. 2023-Aug-13 00:00:00.0000 TDB
Step-size       : 2880 minutes
*******************************************************************************
Center geodetic : 0.0, 0.0, 0.0                   {E-lon(deg),Lat(deg),Alt(km)}
Center cylindric: 0.0, 0.0, 0.0                   {E-lon(deg),Dxy(km),Dz(km)}
Center radii    : (undefined)
Small perturbers: Yes                             {source: SB441-N16}
Output units    : KM-S
Calendar mode   : Mixed Julian/Gregorian
Output type     : GEOMETRIC cartesian states
Output format   : 2 (position and velocity)
Reference frame : Ecliptic of J2000.0
*******************************************************************************
Initial IAU76/J2000 heliocentric ecliptic osculating elements (au, days, deg.):
  EPOCH=  2457440.5 ! 2016-Feb-22.00 (TDB)         Residual RMS= .25054        
   EC= .1117823380628942   QR= 2.789466080304946   TP= 2456670.0378419049      
   OM= 78.93646591035096   W=  86.23693955733471   IN= 2.515752715558631       
  Equivalent ICRF heliocentric cartesian coordinates (au, au/d):
   X= 2.172224168317415E+00  Y=-2.365025903422612E+00  Z=-1.151604256101484E+00
  VX= 7.240862857492718E-03 VY= 4.852529168579769E-03 VZ= 1.811055775148726E-03
Asteroid physical parameters (km, seconds, rotational period in hours):        
   GM= n.a.                RAD= 14.049             ROTPER= 23.                 
   H= 11.43                G= .150                 B-V= n.a.                   
                           ALBEDO= .089            STYP= n.a.                  
*******************************************************************************
JDTDB
   X     Y     Z
   VX    VY    VZ
*******************************************************************************
$$SOE
2460168.500000000 = A.D. 2023-Aug-12 00:00:00.0000 TDB 
 X = 3.002572273925161E+08 Y = 3.865749020161451E+08 Z =-9.509800564061522E+06
 VX=-1.359398045660597E+01 VY= 8.571338286705139E+00 VZ= 6.614342892808209E-01
$$EOE
*******************************************************************************
 
TIME

  Barycentric Dynamical Time ("TDB" or T_eph) output was requested. This
continuous coordinate time is equivalent to the relativistic proper time
of a clock at rest in a reference frame co-moving with the solar system
barycenter but outside the system's gravity well. It is the independent
variable in the solar system relativistic equations of motion.

  TDB runs at a uniform rate of one SI second per second and is independent
of irregularities in Earth's rotation.
 
CALENDAR SYSTEM

  Mixed calendar mode was active such that calendar dates after AD 1582-Oct-15
(if any) are in the modern Gregorian system. Dates prior to 1582-Oct-5 (if any)
are in the Julian calendar system, which is automatically extended for dates
prior to its adoption on 45-Jan-1 BC.  The Julian calendar is useful for
matching historical dates. The Gregorian calendar more accurately corresponds
to the Earth's orbital motion and seasons. A "Gregorian-only" calendar mode is
available if such physical events are the primary interest.

REFERENCE FRAME AND COORDINATES

  Ecliptic at the standard reference epoch

    Reference epoch: J2000.0
    X-Y plane: adopted Earth orbital plane at the reference epoch
               Note: IAU76 obliquity of 84381.448 arcseconds wrt ICRF X-Y plane
    X-axis   : ICRF
    Z-axis   : perpendicular to the X-Y plane in the directional (+ or -) sense
               of Earth's north pole at the reference epoch.

  Symbol meaning:

    JDTDB    Julian Day Number, Barycentric Dynamical Time
      X      X-component of position vector (km)
      Y      Y-component of position vector (km)
      Z      Z-component of position vector (km)
      VX     X-component of velocity vector (km/sec)                           
      VY     Y-component of velocity vector (km/sec)                           
      VZ     Z-component of velocity vector (km/sec)                           

ABERRATIONS AND CORRECTIONS

 Geometric state vectors have NO corrections or aberrations applied.

Computations by ...

    Solar System Dynamics Group, Horizons On-Line Ephemeris System
    4800 Oak Grove Drive, Jet Propulsion Laboratory
    Pasadena, CA  91109   USA

    General site: https://ssd.jpl.nasa.gov/
    Mailing list: https://ssd.jpl.nasa.gov/email_list.html
    System news : https://ssd.jpl.nasa.gov/horizons/news.html
    User Guide  : https://ssd.jpl.nasa.gov/horizons/manual.html
    Connect     : browser        https://ssd.jpl.nasa.gov/horizons/app.html#/x
                  API            https://ssd-api.jpl.nasa.gov/doc/horizons.html
                  command-line   telnet ssd.jpl.nasa.gov 6775
                  e-mail/batch   https://ssd.jpl.nasa.gov/ftp/ssd/hrzn_batch.txt
                  scripts        https://ssd.jpl.nasa.gov/ftp/ssd/SCRIPTS
    Author      : Jon.D.Giorgini@jpl.nasa.gov
*******************************************************************************
